[{"OBJECT_NAME":"KUIPER-00167","OBJECT_ID":"2025-217U","EPOCH":"2026-03-26T09:27:27.531360","MEAN_MOTION":14.79941736,"ECCENTRICITY":7.49e-5,"INCLINATION":51.896,"RA_OF_ASC_NODE":331.6894,"ARG_OF_PERICENTER":92.5155,"MEAN_ANOMALY":267.5893,"EPHEMERIS_TYPE":0,"CLASSIFICATION_TYPE":"U","NORAD_CAT_ID":65780,"ELEMENT_SET_NO":999,"REV_AT_EPOCH":2731,"BSTAR":0.00026804,"MEAN_MOTION_DOT":1.823e-5,"MEAN_MOTION_DDOT":0},{"OBJECT_NAME":"KUIPER-00168","OBJECT_ID":"2025-217V","EPOCH":"2026-03-26T01:48:35.651232","MEAN_MOTION":14.79920678,"ECCENTRICITY":6.451e-5,"INCLINATION":51.9013,"RA_OF_ASC_NODE":315.6451,"ARG_OF_PERICENTER":88.5226,"MEAN_ANOMALY":271.581,"EPHEMERIS_TYPE":0,"CLASSIFICATION_TYPE":"U","NORAD_CAT_ID":65781,"ELEMENT_SET_NO":999,"REV_AT_EPOCH":2751,"BSTAR":-2.9479796e-5,"MEAN_MOTION_DOT":-4.46e-6,"MEAN_MOTION_DDOT":0},{"OBJECT_NAME":"KUIPER-00169","OBJECT_ID":"2025-217W","EPOCH":"2026-03-26T08:09:44.287488","MEAN_MOTION":14.7993322,"ECCENTRICITY":8.22e-5,"INCLINATION":51.902,"RA_OF_ASC_NODE":319.4785,"ARG_OF_PERICENTER":105.3797,"MEAN_ANOMALY":254.7256,"EPHEMERIS_TYPE":0,"CLASSIFICATION_TYPE":"U","NORAD_CAT_ID":65782,"ELEMENT_SET_NO":999,"REV_AT_EPOCH":2748,"BSTAR":0.00016018,"MEAN_MOTION_DOT":1.0e-5,"MEAN_MOTION_DDOT":0},{"OBJECT_NAME":"KUIPER-00170","OBJECT_ID":"2025-217X","EPOCH":"2026-03-26T09:39:14.931360","MEAN_MOTION":14.79932518,"ECCENTRICITY":0.0001734,"INCLINATION":51.9025,"RA_OF_ASC_NODE":324.1842,"ARG_OF_PERICENTER":84.9415,"MEAN_ANOMALY":275.1745,"EPHEMERIS_TYPE":0,"CLASSIFICATION_TYPE":"U","NORAD_CAT_ID":65783,"ELEMENT_SET_NO":999,"REV_AT_EPOCH":2742,"BSTAR":-5.354e-5,"MEAN_MOTION_DOT":-6.3e-6,"MEAN_MOTION_DDOT":0},{"OBJECT_NAME":"KUIPER-00172","OBJECT_ID":"2025-217Z","EPOCH":"2026-03-26T07:28:43.276800","MEAN_MOTION":14.76572379,"ECCENTRICITY":0.0002064,"INCLINATION":51.8997,"RA_OF_ASC_NODE":305.6445,"ARG_OF_PERICENTER":41.4182,"MEAN_ANOMALY":318.6935,"EPHEMERIS_TYPE":0,"CLASSIFICATION_TYPE":"U","NORAD_CAT_ID":65785,"ELEMENT_SET_NO":999,"REV_AT_EPOCH":2767,"BSTAR":0.00037278,"MEAN_MOTION_DOT":2.411e-5,"MEAN_MOTION_DDOT":0},{"OBJECT_NAME":"KUIPER-00173","OBJECT_ID":"2025-217AA","EPOCH":"2026-03-26T08:16:29.303040","MEAN_MOTION":14.7650597,"ECCENTRICITY":7.92e-5,"INCLINATION":51.9021,"RA_OF_ASC_NODE":319.1591,"ARG_OF_PERICENTER":110.8933,"MEAN_ANOMALY":249.2113,"EPHEMERIS_TYPE":0,"CLASSIFICATION_TYPE":"U","NORAD_CAT_ID":65786,"ELEMENT_SET_NO":999,"REV_AT_EPOCH":2748,"BSTAR":0.00052247,"MEAN_MOTION_DOT":3.46e-5,"MEAN_MOTION_DDOT":0},{"OBJECT_NAME":"KUIPER-00174","OBJECT_ID":"2025-217AB","EPOCH":"2026-03-25T21:45:30.074976","MEAN_MOTION":14.79931086,"ECCENTRICITY":9.78e-5,"INCLINATION":51.9031,"RA_OF_ASC_NODE":316.4218,"ARG_OF_PERICENTER":113.5358,"MEAN_ANOMALY":246.5707,"EPHEMERIS_TYPE":0,"CLASSIFICATION_TYPE":"U","NORAD_CAT_ID":65787,"ELEMENT_SET_NO":999,"REV_AT_EPOCH":2748,"BSTAR":0.00040277,"MEAN_MOTION_DOT":2.85e-5,"MEAN_MOTION_DDOT":0},{"OBJECT_NAME":"KUIPER-00176","OBJECT_ID":"2025-217AC","EPOCH":"2026-03-26T08:42:31.644864","MEAN_MOTION":14.79931903,"ECCENTRICITY":7.53e-5,"INCLINATION":51.9023,"RA_OF_ASC_NODE":329.3691,"ARG_OF_PERICENTER":78.5437,"MEAN_ANOMALY":281.5609,"EPHEMERIS_TYPE":0,"CLASSIFICATION_TYPE":"U","NORAD_CAT_ID":65788,"ELEMENT_SET_NO":999,"REV_AT_EPOCH":2734,"BSTAR":6.5979e-5,"MEAN_MOTION_DOT":2.82e-6,"MEAN_MOTION_DDOT":0},{"OBJECT_NAME":"KUIPER-00101","OBJECT_ID":"2025-228A","EPOCH":"2026-03-25T20:02:25.831680","MEAN_MOTION":14.79924962,"ECCENTRICITY":7.048e-5,"INCLINATION":51.8964,"RA_OF_ASC_NODE":289.1812,"ARG_OF_PERICENTER":108.9172,"MEAN_ANOMALY":251.1867,"EPHEMERIS_TYPE":0,"CLASSIFICATION_TYPE":"U","NORAD_CAT_ID":65947,"ELEMENT_SET_NO":999,"REV_AT_EPOCH":2562,"BSTAR":-0.00028353825,"MEAN_MOTION_DOT":-2.381e-5,"MEAN_MOTION_DDOT":0},{"OBJECT_NAME":"KUIPER-00113","OBJECT_ID":"2025-228B","EPOCH":"2026-03-26T13:11:15.700128","MEAN_MOTION":14.79928356,"ECCENTRICITY":7.56e-5,"INCLINATION":51.8981,"RA_OF_ASC_NODE":281.0395,"ARG_OF_PERICENTER":102.8212,"MEAN_ANOMALY":257.2834,"EPHEMERIS_TYPE":0,"CLASSIFICATION_TYPE":"U","NORAD_CAT_ID":65948,"ELEMENT_SET_NO":999,"REV_AT_EPOCH":2579,"BSTAR":0.00045518,"MEAN_MOTION_DOT":3.25e-5,"MEAN_MOTION_DDOT":0},{"OBJECT_NAME":"KUIPER-00117","OBJECT_ID":"2025-228C","EPOCH":"2026-03-25T20:06:19.582560","MEAN_MOTION":14.79929234,"ECCENTRICITY":7.124e-5,"INCLINATION":51.8982,"RA_OF_ASC_NODE":286.6889,"ARG_OF_PERICENTER":92.2634,"MEAN_ANOMALY":267.841,"EPHEMERIS_TYPE":0,"CLASSIFICATION_TYPE":"U","NORAD_CAT_ID":65949,"ELEMENT_SET_NO":999,"REV_AT_EPOCH":2565,"BSTAR":-9.9697955e-5,"MEAN_MOTION_DOT":-9.81e-6,"MEAN_MOTION_DDOT":0},{"OBJECT_NAME":"KUIPER-00121","OBJECT_ID":"2025-228D","EPOCH":"2026-03-25T19:25:27.783840","MEAN_MOTION":14.79935661,"ECCENTRICITY":7.004e-5,"INCLINATION":51.8997,"RA_OF_ASC_NODE":281.8123,"ARG_OF_PERICENTER":113.4181,"MEAN_ANOMALY":246.6855,"EPHEMERIS_TYPE":0,"CLASSIFICATION_TYPE":"U","NORAD_CAT_ID":65950,"ELEMENT_SET_NO":999,"REV_AT_EPOCH":2572,"BSTAR":0.00045093913,"MEAN_MOTION_DOT":3.218e-5,"MEAN_MOTION_DDOT":0},{"OBJECT_NAME":"KUIPER-00122","OBJECT_ID":"2025-228E","EPOCH":"2026-03-26T06:30:32.886144","MEAN_MOTION":14.79931607,"ECCENTRICITY":8.0e-5,"INCLINATION":51.8998,"RA_OF_ASC_NODE":289.7477,"ARG_OF_PERICENTER":110.8011,"MEAN_ANOMALY":249.3037,"EPHEMERIS_TYPE":0,"CLASSIFICATION_TYPE":"U","NORAD_CAT_ID":65951,"ELEMENT_SET_NO":999,"REV_AT_EPOCH":2565,"BSTAR":0.00045436,"MEAN_MOTION_DOT":3.244e-5,"MEAN_MOTION_DDOT":0},{"OBJECT_NAME":"KUIPER-00123","OBJECT_ID":"2025-228F","EPOCH":"2026-03-26T07:19:15.346272","MEAN_MOTION":14.79931607,"ECCENTRICITY":6.46e-5,"INCLINATION":51.8992,"RA_OF_ASC_NODE":289.6185,"ARG_OF_PERICENTER":102.05,"MEAN_ANOMALY":258.0535,"EPHEMERIS_TYPE":0,"CLASSIFICATION_TYPE":"U","NORAD_CAT_ID":65952,"ELEMENT_SET_NO":999,"REV_AT_EPOCH":2565,"BSTAR":-2.9173e-5,"MEAN_MOTION_DOT":-4.43e-6,"MEAN_MOTION_DDOT":0},{"OBJECT_NAME":"KUIPER-00124","OBJECT_ID":"2025-228G","EPOCH":"2026-03-25T20:10:12.399456","MEAN_MOTION":14.79929702,"ECCENTRICITY":7.34e-5,"INCLINATION":51.8982,"RA_OF_ASC_NODE":284.161,"ARG_OF_PERICENTER":100.1358,"MEAN_ANOMALY":259.9687,"EPHEMERIS_TYPE":0,"CLASSIFICATION_TYPE":"U","NORAD_CAT_ID":65953,"ELEMENT_SET_NO":999,"REV_AT_EPOCH":2569,"BSTAR":-0.00014945793,"MEAN_MOTION_DOT":-1.36e-5,"MEAN_MOTION_DDOT":0},{"OBJECT_NAME":"KUIPER-00125","OBJECT_ID":"2025-228H","EPOCH":"2026-03-25T18:56:04.384032","MEAN_MOTION":14.79949482,"ECCENTRICITY":6.585e-5,"INCLINATION":51.9001,"RA_OF_ASC_NODE":269.4135,"ARG_OF_PERICENTER":107.4924,"MEAN_ANOMALY":252.6111,"EPHEMERIS_TYPE":0,"CLASSIFICATION_TYPE":"U","NORAD_CAT_ID":65954,"ELEMENT_SET_NO":999,"REV_AT_EPOCH":2589,"BSTAR":-0.00062447351,"MEAN_MOTION_DOT":-4.98e-5,"MEAN_MOTION_DDOT":0},{"OBJECT_NAME":"KUIPER-00126","OBJECT_ID":"2025-228J","EPOCH":"2026-03-26T13:03:23.576832","MEAN_MOTION":14.79932804,"ECCENTRICITY":7.33e-5,"INCLINATION":51.8994,"RA_OF_ASC_NODE":286.0725,"ARG_OF_PERICENTER":107.8285,"MEAN_ANOMALY":252.2758,"EPHEMERIS_TYPE":0,"CLASSIFICATION_TYPE":"U","NORAD_CAT_ID":65955,"ELEMENT_SET_NO":999,"REV_AT_EPOCH":2572,"BSTAR":0.00042658,"MEAN_MOTION_DOT":3.032e-5,"MEAN_MOTION_DDOT":0}]
