KUIPER-00167            
1 65780U 25217U   26085.39406865  .00001823  00000+0  26804-3 0  9991
2 65780  51.8960 331.6894 0000749  92.5155 267.5893 14.79941736 27312
KUIPER-00168            
1 65781U 25217V   26085.07541263 -.00000446  00000+0 -29480-4 0  9995
2 65781  51.9013 315.6451 0000645  88.5226 271.5810 14.79920678 27511
KUIPER-00169            
1 65782U 25217W   26085.34009592  .00001000  00000+0  16018-3 0  9997
2 65782  51.9020 319.4785 0000822 105.3797 254.7256 14.79933220 27480
KUIPER-00170            
1 65783U 25217X   26085.40225615 -.00000630  00000+0 -53540-4 0  9993
2 65783  51.9025 324.1842 0001734  84.9415 275.1745 14.79932518 27428
KUIPER-00172            
1 65785U 25217Z   26085.31161200  .00002411  00000+0  37278-3 0  9990
2 65785  51.8997 305.6445 0002064  41.4182 318.6935 14.76572379 27679
KUIPER-00173            
1 65786U 25217AA  26085.34478360  .00003460  00000+0  52247-3 0  9990
2 65786  51.9021 319.1591 0000792 110.8933 249.2113 14.76505970 27481
KUIPER-00174            
1 65787U 25217AB  26084.90659809  .00002850  00000+0  40277-3 0  9993
2 65787  51.9031 316.4218 0000978 113.5358 246.5707 14.79931086 27489
KUIPER-00176            
1 65788U 25217AC  26085.36286626  .00000282  00000+0  65979-4 0  9992
2 65788  51.9023 329.3691 0000753  78.5437 281.5609 14.79931903 27341
KUIPER-00101            
1 65947U 25228A   26084.83502120 -.00002381  00000+0 -28354-3 0  9991
2 65947  51.8964 289.1812 0000704 108.9172 251.1867 14.79924962 25624
KUIPER-00113            
1 65948U 25228B   26085.54948727  .00003250  00000+0  45518-3 0  9993
2 65948  51.8981 281.0395 0000756 102.8212 257.2834 14.79928356 25796
KUIPER-00117            
1 65949U 25228C   26084.83772665 -.00000981  00000+0 -99698-4 0  9990
2 65949  51.8982 286.6889 0000712  92.2634 267.8410 14.79929234 25657
KUIPER-00121            
1 65950U 25228D   26084.80934935  .00003218  00000+0  45094-3 0  9993
2 65950  51.8997 281.8123 0000700 113.4181 246.6855 14.79935661 25720
KUIPER-00122            
1 65951U 25228E   26085.27121396  .00003244  00000+0  45436-3 0  9994
2 65951  51.8998 289.7477 0000800 110.8011 249.3037 14.79931607 25655
KUIPER-00123            
1 65952U 25228F   26085.30503873 -.00000443  00000+0 -29173-4 0  9994
2 65952  51.8992 289.6185 0000646 102.0500 258.0535 14.79931607 25659
KUIPER-00124            
1 65953U 25228G   26084.84042129 -.00001360  00000+0 -14946-3 0  9995
2 65953  51.8982 284.1610 0000734 100.1358 259.9687 14.79929702 25695
KUIPER-00125            
1 65954U 25228H   26084.78893963 -.00004980  00000+0 -62447-3 0  9999
2 65954  51.9001 269.4135 0000658 107.4924 252.6111 14.79949482 25892
KUIPER-00126            
1 65955U 25228J   26085.54402288  .00003032  00000+0  42658-3 0  9998
2 65955  51.8994 286.0725 0000733 107.8285 252.2758 14.79932804 25726
